[{"OBJECT_NAME":"OBJECT L","OBJECT_ID":"2023-085L","EPOCH":"2026-03-09T23:02:21.999840","MEAN_MOTION":15.29079976,"ECCENTRICITY":0.0005428,"INCLINATION":97.486,"RA_OF_ASC_NODE":178.8598,"ARG_OF_PERICENTER":50.8528,"MEAN_ANOMALY":309.3193,"EPHEMERIS_TYPE":0,"CLASSIFICATION_TYPE":"U","NORAD_CAT_ID":57014,"ELEMENT_SET_NO":999,"REV_AT_EPOCH":15144,"BSTAR":0.00063462603,"MEAN_MOTION_DOT":0.00017871,"MEAN_MOTION_DDOT":0},{"OBJECT_NAME":"STARLINK-32833","OBJECT_ID":"2025-022V","EPOCH":"2026-03-09T10:39:13.528512","MEAN_MOTION":15.30166727,"ECCENTRICITY":0.00013201,"INCLINATION":53.158,"RA_OF_ASC_NODE":130.6762,"ARG_OF_PERICENTER":92.843,"MEAN_ANOMALY":267.2722,"EPHEMERIS_TYPE":0,"CLASSIFICATION_TYPE":"U","NORAD_CAT_ID":62873,"ELEMENT_SET_NO":999,"REV_AT_EPOCH":6186,"BSTAR":0.0010283482,"MEAN_MOTION_DOT":0.0003019,"MEAN_MOTION_DDOT":0}]
